COSMOS 2534 [GLONASS-M] 
1 44299U 19030A   26180.66029704  .00000085  00000+0  00000+0 0  9993
2 44299  64.3700 192.1964 0013517 275.0224  73.0621  2.13102425 55189
BEIDOU-3 IGSO-2         
1 44337U 19035A   26181.82429115 -.00000100  00000+0  00000+0 0  9999
2 44337  55.2499 158.7428 0039570 216.3108 319.8070  1.00262553 25804
NAVSTAR 78 (USA 293)    
1 44506U 19056A   26182.58461656 -.00000083  00000+0  00000+0 0  9990
2 44506  55.6296 330.5712 0062739 197.8229 145.5538  2.00570209 50359
BEIDOU-3 M24            
1 44542U 19061A   26181.12933678  .00000071  00000+0  00000+0 0  9999
2 44542  54.3970 182.2910 0008559 358.7023   1.3089  1.86229317 46030
BEIDOU-3 M23            
1 44543U 19061B   26181.79651252  .00000070  00000+0  00000+0 0  9997
2 44543  54.3961 182.2371 0005841 339.8023  19.0264  1.86227617 46046
EUTELSAT 5 WEST B       
1 44624U 19067A   26182.15584891 -.00000031  00000+0  00000+0 0  9996
2 44624   0.0719 328.8712 0003382 131.6114 229.8372  1.00272939 24577
BEIDOU-3 M22            
1 44793U 19078A   26182.58026267 -.00000063  00000+0  00000+0 0  9995
2 44793  53.9217 299.3211 0006050  50.4418 309.6293  1.86227629 44919
BEIDOU-3 M21            
1 44794U 19078B   26178.96140830 -.00000087  00000+0  00000+0 0  9992
2 44794  53.8982 299.4091 0003978  49.1157 310.9195  1.86227959 44851
COSMOS 2544 [GLONASS-M] 
1 44850U 19088A   26182.10720262 -.00000014  00000+0  00000+0 0  9990
2 44850  65.5731  73.2660 0012737 256.8121 103.1077  2.13103121 51019
BEIDOU-3 M19            
1 44864U 19090A   26180.56083194 -.00000055  00000+0  00000+0 0  9997
2 44864  56.5689  62.3817 0017294 297.3724 252.4111  1.86231770 44460
BEIDOU-3 M20            
1 44865U 19090B   26180.41039279 -.00000056  00000+0  00000+0 0  9998
2 44865  56.5707  62.4211 0015146 311.8679 226.6408  1.86231892 44441
BEIDOU-3 G2             
1 45344U 20017A   26182.52913639 -.00000132  00000+0  00000+0 0  9992
2 45344   2.8921  47.5535 0002596  44.2336  98.3784  1.00271769 23408
COSMOS 2545 [GLONASS-M] 
1 45358U 20018A   26180.42510890 -.00000068  00000+0  00000+0 0  9995
2 45358  64.3471 311.9885 0008865 229.6303 130.2863  2.13102698 48927
BEIDOU-3 G3             
1 45807U 20040A   26182.60644942 -.00000345  00000+0  00000+0 0  9995
2 45807   2.4814  67.4760 0002508 332.7964 208.2731  1.00272261 22215
NAVSTAR 79 (USA 304)    
1 45854U 20041A   26180.70415300 -.00000068  00000+0  00000+0 0  9993
2 45854  56.6686  28.4552 0065566 209.6569 153.6928  2.00558736 44295
GALAXY 30 (G-30)        
1 46114U 20056C   26182.56673554  .00000047  00000+0  00000+0 0  9998
2 46114   0.0158  40.6278 0002239  58.0496 259.9584  1.00272953 21438
COSMOS 2547 [GLONASS-K] 
1 46805U 20075A   26181.55327406  .00000081  00000+0  00000+0 0  9994
2 46805  64.6009 192.0293 0009399 239.7356 120.2111  2.13100012 44197
NAVSTAR 80 (USA 309)    
1 46826U 20078A   26182.27330976  .00000067  00000+0  00000+0 0  9990
2 46826  53.9787 210.2073 0074038 207.5025 185.7090  2.00565158 41798
NAVSTAR 81 (USA 319)    
1 48859U 21054A   26182.27996021 -.00000085  00000+0  00000+0 0  9993
2 48859  55.1675 331.8935 0025911 228.3918 355.9462  2.00568409 37039
QZS-1R (MICHIBIKI-1R)   
1 49336U 21096A   26182.60904943 -.00000278  00000+0  00000+0 0  9993
2 49336  37.4893  79.3703 0756025 272.0403 280.4502  1.00251244 17157
GSAT0223 (GALILEO 27)   
1 49809U 21116A   26180.89425034 -.00000086  00000+0  00000+0 0  9996
2 49809  57.1569 341.3321 0001744 184.5600 173.8860  1.70476494 28399
GSAT0224 (GALILEO 28)   
1 49810U 21116B   26181.59302091 -.00000084  00000+0  00000+0 0  9991
2 49810  57.1567 341.3123 0001428 163.7362  16.1903  1.70476570 28439
COSMOS 2557 [GLONASS-K] 
1 52984U 22075A   26180.30969183 -.00000070  00000+0  00000+0 0  9996
2 52984  64.2907 314.0587 0010591 272.5686  87.3025  2.13102382 30974
COSMOS 2559 [GLONASS-K] 
1 54031U 22130A   26182.00640227 -.00000059  00000+0  00000+0 0  9994
2 54031  64.2624 314.0816 0012835 179.4969 180.5025  2.13101821 28983
COSMOS 2564 [GLONASS-M] 
1 54377U 22161A   26182.31886772  .00000080  00000+0  00000+0 0  9995
2 54377  64.7430 192.2425 0012263 225.0968 134.8404  2.13102086 27931
NAVSTAR 82 (USA 343)    
1 55268U 23009A   26178.92981966  .00000027  00000+0  00000+0 0  9991
2 55268  55.1241 148.0967 0006263 317.3274  46.4275  2.00570960 25469
BEIDOU-3 G4             
1 56564U 23066A   26182.61231295 -.00000271  00000+0  00000+0 0  9990
2 56564   0.4719 335.0709 0005006 176.1958 128.8586  1.00269266 11534
NVS-01 (IRNSS-1J)       
1 56759U 23076A   26182.53894622 -.00000324  00000+0  00000+0 0  9996
2 56759   2.1339 243.7024 0002877   9.3022 350.1818  1.00272487 11261
COSMOS 2569 [GLONASS-K2]
1 57517U 23114A   26181.39268046 -.00000020  00000+0  00000+0 0  9993
2 57517  65.3095  72.1752 0010196 296.5286  63.4269  2.13103831 22549
BEIDOU-3 M28            
1 58654U 23207A   26180.11237985 -.00000061  00000+0  00000+0 0  9991
2 58654  55.7632  61.9007 0002902 354.1040   5.9493  1.86229901 17063
BEIDOU-3 M26            
1 58655U 23207B   26179.37291324 -.00000068  00000+0  00000+0 0  9992
2 58655  55.7647  61.9122 0002601 322.6839  37.3509  1.86229915 17039
